ONEWEB-0102             
1 47258U 20100A   25322.64398014  .00000404  00000+0  10884-2 0  9998
2 47258  87.8967  32.5138 0001794  95.1611 264.9723 13.12442691237119
ONEWEB-0109             
1 47259U 20100B   25322.57585047  .00000368  00000+0  98712-3 0  9991
2 47259  87.8968  32.4935 0001968 100.9698 259.1652 13.12441057236939
ONEWEB-0110             
1 47260U 20100C   25322.60178823 -.00000266  00000+0 -77577-3 0  9992
2 47260  87.8970  32.4731 0002054 103.3714 256.7644 13.12440732237104
ONEWEB-0111             
1 47261U 20100D   25322.25143248  .00000079  00000+0  18386-3 0  9990
2 47261  87.8970  32.5605 0001832  99.3143 260.8193 13.12442835236895
ONEWEB-0114             
1 47262U 20100E   25322.66343461  .00000242  00000+0  63855-3 0  9998
2 47262  87.8974  32.4735 0001680  90.8006 269.3315 13.12441084236905
ONEWEB-0117             
1 47263U 20100F   25322.65533402  .00000421  00000+0  11348-2 0  9992
2 47263  87.8972  32.4727 0001778 102.2076 257.9251 13.12442173236911
ONEWEB-0118             
1 47264U 20100G   25322.61152580 -.00000373  00000+0 -10719-2 0  9992
2 47264  87.8971  32.4806 0001427  95.4175 264.7116 13.12442225237109
ONEWEB-0119             
1 47265U 20100H   25322.63910713  .00000315  00000+0  84106-3 0  9991
2 47265  87.8966  32.5115 0001798  99.4353 260.6979 13.12443731237083
